IXPE                    
1 49954U 21121A   24258.58334491  .00016686  00000+0  12394-2 0  9993
2 49954   0.2296  89.0627 0008547 167.3404 103.7280 14.99894361  5755
